GLOBALSTAR M068 [-]     
1 32266U 07048D   24041.38474122 -.00000039  00000+0  36187-3 0  9990
2 32266  51.9913   4.4257 0001021 114.7942  55.0457 12.62778717755295
GLOBALSTAR M079 [+]     
1 37188U 10054A   24041.40519439 -.00000108  00000+0 -26153-4 0  9994
2 37188  52.0013 199.8930 0000723  92.9478 284.3493 12.62266466614229
GLOBALSTAR M074 [+]     
1 37189U 10054B   24041.86012841 -.00000117  00000+0 -72695-4 0  9992
2 37189  51.9991 197.9074 0001008  98.8324  66.4039 12.62265216614950
GLOBALSTAR M076 [+]     
1 37190U 10054C   24041.45833865 -.00000109  00000+0 -27530-4 0  9995
2 37190  52.0004 199.2593 0001036  66.8237 310.2577 12.62274686614553
GLOBALSTAR M077 [+]     
1 37191U 10054D   24041.54944216 -.00000102  00000+0  84879-5 0  9991
2 37191  52.0063 155.6951 0000932 108.6498  22.9726 12.62269299614930
GLOBALSTAR M075 [+]     
1 37192U 10054E   24041.02892562 -.00000091  00000+0  70665-4 0  9995
2 37192  51.9923 243.0996 0000794  81.1144  83.9483 12.62270589613721
GLOBALSTAR M073 [+]     
1 37193U 10054F   24041.73789715 -.00000095  00000+0  50352-4 0  9994
2 37193  52.0052 154.3781 0000801 107.8566  42.7612 12.62272103615695
GLOBALSTAR M083 [+]     
1 37739U 11033A   24041.50387035 -.00000077  00000+0  15015-3 0  9998
2 37739  51.9853 104.4969 0000626 143.9033 322.1851 12.62265785584634
GLOBALSTAR M088 [+]     
1 37740U 11033B   24041.32812038 -.00000102  00000+0  11328-4 0  9999
2 37740  51.9759  10.9375 0000104  96.3018  51.3411 12.62264580580156
GLOBALSTAR M091 [+]     
1 37741U 11033C   24041.26601039 -.00000075  00000+0  16301-3 0  9994
2 37741  52.0023 333.8025 0000174  56.6935 108.1562 12.62270970580930
GLOBALSTAR M085 [+]     
1 37742U 11033D   24041.86797924 -.00000069  00000+0  19233-3 0  9990
2 37742  51.9865 283.4463 0000512  75.2315   5.9355 12.62267653582013
GLOBALSTAR M081 [+]     
1 37743U 11033E   24041.89423190 -.00000066  00000+0  21152-3 0  9995
2 37743  51.9958 285.8489 0000522  50.6110  30.3183 12.62269412582052
GLOBALSTAR M089 [+]     
1 37744U 11033F   24041.00194308 -.00000093  00000+0  61070-4 0  9999
2 37744  51.9904 242.8843 0001077  65.2055  99.2191 12.62254256582409
GLOBALSTAR M084 [+]     
1 38040U 11080A   24041.47736069 -.00000076  00000+0  15325-3 0  9990
2 38040  52.0005 108.4627 0000741  97.5439   7.5422 12.62270741560447
GLOBALSTAR M080 [+]     
1 38041U 11080B   24041.36617854 -.00000071  00000+0  18267-3 0  9992
2 38041  52.0056 110.2356 0000681  83.8125 355.2183 12.62268865560550
GLOBALSTAR M082 [+]     
1 38042U 11080C   24041.38470450 -.00000088  00000+0  90027-4 0  9997
2 38042  52.0081  65.5723 0000814 163.3840 300.4441 12.62265829561260
GLOBALSTAR M092 [+]     
1 38043U 11080D   24041.51191515 -.00000097  00000+0  35162-4 0  9994
2 38043  52.0076 155.5375 0001050 103.0333 337.5167 12.62276401559732
GLOBALSTAR M090 [+]     
1 38044U 11080E   24041.50346047 -.00000083  00000+0  11739-3 0  9994
2 38044  51.9892  59.6528 0000454 151.6909  12.9478 12.62266083561395
GLOBALSTAR M086 [+]     
1 38045U 11080F   24041.35796924 -.00000086  00000+0  99724-4 0  9995
2 38045  51.9903  60.6095 0000592 310.9304 151.5198 12.62267051561320
GLOBALSTAR M097 [+]     
1 39072U 13005A   24041.20331692 -.00000088  00000+0  88682-4 0  9999
2 39072  52.0073 335.1270 0000220  52.3018 307.7869 12.62260422508554
GLOBALSTAR M093 [+]     
1 39073U 13005B   24041.17680210 -.00000077  00000+0  14680-3 0  9993
2 39073  51.9835 329.2998 0000189  34.9764 325.1115 12.62260690508508
GLOBALSTAR M094 [+]     
1 39074U 13005C   24041.01851550 -.00000086  00000+0  97910-4 0  9992
2 39074  51.9933 243.6708 0000717  80.8896 279.2052 12.62262933510097
GLOBALSTAR M096 [+]     
1 39075U 13005D   24041.11107016 -.00000060  00000+0  24387-3 0  9994
2 39075  52.0076 291.5214 0000423  57.9665 302.1243 12.62272436509023
GLOBALSTAR M078 [+]     
1 39076U 13005E   24041.32244162 -.00000101  00000+0  15331-4 0  9998
2 39076  51.9896  16.0558 0001074 148.0149 212.0783 12.62259652507677
GLOBALSTAR M095 [+]     
1 39077U 13005F   24041.34839337 -.00000104  00000+0 -31496-5 0  9990
2 39077  51.9826  13.4154 0000518 177.4884 182.5985 12.62263007507537
GLOBALSTAR M087 [+]     
1 52888U 22064A   24041.85541595 -.00000057  00000+0  13498-3 0  9998
2 52888  51.9762 292.3809 0010116  43.5649 316.6049 13.37564887 80487
